OBJECT_NAME,OBJECT_ID,EPOCH,MEAN_MOTION,ECCENTRICITY,INCLINATION,RA_OF_ASC_NODE,ARG_OF_PERICENTER,MEAN_ANOMALY,EPHEMERIS_TYPE,CLASSIFICATION_TYPE,NORAD_CAT_ID,ELEMENT_SET_NO,REV_AT_EPOCH,BSTAR,MEAN_MOTION_DOT,MEAN_MOTION_DDOT
EUTELSAT KONNECT VHTS,2022-110A,2024-09-23T05:40:42.678048,1.00270953,.0002821,0.0526,97.1377,78.3076,275.0243,0,U,53765,999,55,0,.6E-7,0
ZHONGXING-1E,2022-112A,2024-09-23T13:01:55.164576,1.00269229,.0002409,0.0324,50.0271,200.7367,28.9391,0,U,53813,999,751,0,-.161E-5,0
SES-20,2022-123A,2024-09-22T20:42:10.711008,1.00270575,.0001467,0.0097,165.7775,308.2729,95.6043,0,U,53960,999,720,0,-.112E-5,0
SES-21,2022-123B,2024-09-23T13:44:04.845120,1.00270978,.0001075,0.0176,85.4344,90.4452,262.0577,0,U,53961,999,88,0,.57E-6,0
GALAXY 33 (G-33),2022-128A,2024-09-23T13:43:34.817664,1.00271824,.0001873,0.0186,160.2314,30.4833,245.0730,0,U,54026,999,741,0,.67E-6,0
GALAXY 34 (G-34),2022-128B,2024-09-22T15:25:54.368832,1.00271778,.0001489,0.0136,136.5132,42.6406,285.3157,0,U,54027,999,757,0,.49E-6,0
ANGOSAT 2,2022-131A,2024-09-23T14:28:07.120416,1.00271114,.000032,0.0146,177.9621,249.4692,175.5379,0,U,54033,999,713,0,.123E-5,0
EUTELSAT HOTBIRD 13F,2022-134A,2024-09-23T14:25:14.471616,1.00272345,.0001892,0.0690,291.3092,62.6287,238.3119,0,U,54048,999,711,0,.75E-6,0
LDPE-2,2022-144A,2024-09-23T11:57:37.488384,0.99938491,.0002278,4.0498,64.9403,244.2026,125.0152,0,U,54219,999,548,0,-.35E-6,0
EUTELSAT HOTBIRD 13G,2022-146A,2024-09-23T02:24:28.392768,1.00270856,.0002075,0.0541,246.2365,300.0093,225.3140,0,U,54225,999,114,0,.76E-6,0
ZHONGXING-19,2022-148A,2024-09-23T14:00:14.515776,1.00271776,.0008656,0.0162,131.8315,100.9347,143.5970,0,U,54230,999,704,0,-.92E-6,0
GALAXY 31 (G-31),2022-153A,2024-09-23T13:46:57.493056,1.00272146,.0001596,0.0117,187.6239,19.1400,241.8850,0,U,54243,999,83,0,.1E-7,0
GALAXY 32 (G-32),2022-153B,2024-09-23T01:54:34.348608,1.00270852,.0000423,0.0133,254.3276,18.2651,27.4740,0,U,54244,999,680,0,-.185E-5,0
EUTELSAT 10B,2022-157A,2024-09-23T14:24:21.926592,1.00269582,.0000691,0.0546,94.4126,289.4947,205.0997,0,U,54259,999,669,0,.56E-6,0
GALAXY 35 (G-35),2022-170A,2024-09-23T13:54:57.907296,1.00271570,.0002063,0.0083,189.6520,2.8990,286.0079,0,U,54741,999,656,0,-.174E-5,0
GALAXY 36 (G-36),2022-170B,2024-09-23T03:38:17.205792,1.00271389,.0002115,0.0194,125.0841,20.7419,182.2389,0,U,54742,999,643,0,-.196E-5,0
METEOSAT-12 (MTG-I1),2022-170C,2024-09-23T07:29:35.964384,1.00269656,.0001954,0.5668,39.8682,110.7669,324.1376,0,U,54743,999,664,0,-.18E-6,0
SHIJIAN-23 (SJ-23),2023-002A,2024-09-23T16:41:42.686880,1.00477815,.0001143,2.0837,86.4294,153.8440,85.8993,0,U,55131,999,635,0,-.124E-5,0
USA 340,2022-144E,2024-09-16T22:01:42.590784,0.99551915,.0001934,4.0008,65.7300,103.3914,262.3274,0,U,55138,999,537,0,-.208E-5,0
APSTAR-6E,2023-005A,2024-09-22T21:50:06.720864,1.00273073,.0002697,0.0440,101.4702,338.3913,23.9627,0,U,55239,999,1252,0,-.328E-5,0
USA 342,2023-008A,2024-09-21T07:45:42.725952,1.00270604,.000025,0.0216,184.3520,79.5168,237.0390,0,U,55263,999,104,0,.129E-5,0
LDPE-3A,2023-008B,2024-09-23T13:00:10.075392,1.00558076,.0000617,0.5826,88.5181,167.1141,17.5469,0,U,55264,999,548,0,-.166E-5,0
ELEKTRO-L 4,2023-016A,2024-09-23T12:45:13.073184,1.00270633,.000247,0.0524,17.7233,219.1977,123.0651,0,U,55506,999,598,0,-.71E-6,0
AMAZONAS NEXUS,2023-017A,2024-09-22T10:38:42.758016,1.00268983,.0002317,0.0479,30.5069,114.4441,315.5044,0,U,55508,999,591,0,-.293E-5,0
ZHONGXING-26,2023-023A,2024-09-22T23:30:34.410816,1.00274635,.0001896,0.0712,80.2625,44.6448,355.1817,0,U,55686,999,589,0,-.365E-5,0
LUCH-5X (OLYMP-K 2),2023-031A,2024-09-23T16:04:12.084384,1.00272282,.0001005,0.0353,258.4235,330.7420,13.9787,0,U,55841,999,561,0,-.22E-6,0
GAOFEN-13 02,2023-036A,2024-09-23T13:04:51.195936,1.00266653,.0004822,1.8160,308.3863,300.7216,96.5456,0,U,55912,999,576,0,-.246E-5,0
SES-18,2023-038A,2024-09-23T02:08:17.178144,1.00272065,.0002518,0.0327,257.5853,333.1637,60.6621,0,U,55970,999,576,0,-.112E-5,0
SES-19,2023-038B,2024-09-23T13:42:57.286368,1.00272715,.0001591,0.0305,279.0835,276.2540,238.3979,0,U,55971,999,573,0,.76E-6,0
INTELSAT 40E (IS-40E),2023-052A,2024-09-23T01:54:34.348608,1.00271114,.00027,0.0097,202.4761,353.4649,104.1271,0,U,56174,999,548,0,-.185E-5,0
VIASAT-3,2023-060A,2024-09-22T21:33:42.673248,1.00270183,.0000084,0.0246,195.3625,253.4635,147.8768,0,U,56370,999,510,0,-.196E-5,0
ARCTURUS,2023-060B,2024-09-23T13:00:55.113984,1.00271520,.0000745,1.1347,87.5826,181.0886,7.4681,0,U,56371,999,512,0,-.129E-5,0
