EUTELSAT KONNECT VHTS   
1 53765U 22110A   24267.23660507  .00000006  00000+0  00000+0 0  9996
2 53765   0.0526  97.1377 0002821  78.3076 275.0243  1.00270953   559
ZHONGXING-1E            
1 53813U 22112A   24267.54299959 -.00000161  00000+0  00000+0 0  9998
2 53813   0.0324  50.0271 0002409 200.7367  28.9391  1.00269229  7512
SES-20                  
1 53960U 22123A   24266.86262397 -.00000112  00000+0  00000+0 0  9999
2 53960   0.0097 165.7775 0001467 308.2729  95.6043  1.00270575  7201
SES-21                  
1 53961U 22123B   24267.57227830  .00000057  00000+0  00000+0 0  9999
2 53961   0.0176  85.4344 0001075  90.4452 262.0577  1.00270978   884
GALAXY 33 (G-33)        
1 54026U 22128A   24267.57193076  .00000067  00000+0  00000+0 0  9992
2 54026   0.0186 160.2314 0001873  30.4833 245.0730  1.00271824  7419
GALAXY 34 (G-34)        
1 54027U 22128B   24266.64299038  .00000049  00000+0  00000+0 0  9995
2 54027   0.0136 136.5132 0001489  42.6406 285.3157  1.00271778  7578
ANGOSAT 2               
1 54033U 22131A   24267.60286019  .00000123  00000+0  00000+0 0  9991
2 54033   0.0146 177.9621 0000320 249.4692 175.5379  1.00271114  7137
EUTELSAT HOTBIRD 13F    
1 54048U 22134A   24267.60086194  .00000075  00000+0  00000+0 0  9998
2 54048   0.0690 291.3092 0001892  62.6287 238.3119  1.00272345  7115
LDPE-2                  
1 54219U 22144A   24267.49835056 -.00000035  00000+0  00000+0 0  9992
2 54219   4.0498  64.9403 0002278 244.2026 125.0152  0.99938491  5488
EUTELSAT HOTBIRD 13G    
1 54225U 22146A   24267.10032862  .00000076  00000+0  00000+0 0  9997
2 54225   0.0541 246.2365 0002075 300.0093 225.3140  1.00270856  1149
ZHONGXING-19            
1 54230U 22148A   24267.58350134 -.00000092  00000+0  00000+0 0  9991
2 54230   0.0162 131.8315 0008656 100.9347 143.5970  1.00271776  7047
GALAXY 31 (G-31)        
1 54243U 22153A   24267.57427654  .00000001  00000+0  00000+0 0  9991
2 54243   0.0117 187.6239 0001596  19.1400 241.8850  1.00272146   833
GALAXY 32 (G-32)        
1 54244U 22153B   24267.07956422 -.00000185  00000+0  00000+0 0  9991
2 54244   0.0133 254.3276 0000423  18.2651  27.4740  1.00270852  6802
EUTELSAT 10B            
1 54259U 22157A   24267.60025378  .00000056  00000+0  00000+0 0  9993
2 54259   0.0546  94.4126 0000691 289.4947 205.0997  1.00269582  6693
GALAXY 35 (G-35)        
1 54741U 22170A   24267.57983689 -.00000174  00000+0  00000+0 0  9990
2 54741   0.0083 189.6520 0002063   2.8990 286.0079  1.00271570  6566
GALAXY 36 (G-36)        
1 54742U 22170B   24267.15158803 -.00000196  00000+0  00000+0 0  9991
2 54742   0.0194 125.0841 0002115  20.7419 182.2389  1.00271389  6438
METEOSAT-12 (MTG-I1)    
1 54743U 22170C   24267.31222181 -.00000018  00000+0  00000+0 0  9994
2 54743   0.5668  39.8682 0001954 110.7669 324.1376  1.00269656  6642
SHIJIAN-23 (SJ-23)      
1 55131U 23002A   24267.69563295 -.00000124  00000+0  00000+0 0  9994
2 55131   2.0837  86.4294 0001143 153.8440  85.8993  1.00477815  6353
USA 340                 
1 55138U 22144E   24260.91785406 -.00000208  00000+0  00000+0 0  9998
2 55138   4.0008  65.7300 0001934 103.3914 262.3274  0.99551915  5370
APSTAR-6E               
1 55239U 23005A   24266.90980001 -.00000328  00000+0  00000+0 0  9993
2 55239   0.0440 101.4702 0002697 338.3913  23.9627  1.00273073 12525
USA 342                 
1 55263U 23008A   24265.32341118  .00000129  00000+0  00000+0 0  9996
2 55263   0.0216 184.3520 0000250  79.5168 237.0390  1.00270604  1047
LDPE-3A                 
1 55264U 23008B   24267.54178328 -.00000166  00000+0  00000+0 0  9996
2 55264   0.5826  88.5181 0000617 167.1141  17.5469  1.00558076  5482
ELEKTRO-L 4             
1 55506U 23016A   24267.53140131 -.00000071  00000+0  00000+0 0  9999
2 55506   0.0524  17.7233 0002470 219.1977 123.0651  1.00270633  5988
AMAZONAS NEXUS          
1 55508U 23017A   24266.44355044 -.00000293  00000+0  00000+0 0  9998
2 55508   0.0479  30.5069 0002317 114.4441 315.5044  1.00268983  5914
ZHONGXING-26            
1 55686U 23023A   24266.97956494 -.00000365  00000+0  00000+0 0  9996
2 55686   0.0712  80.2625 0001896  44.6448 355.1817  1.00274635  5899
LUCH-5X (OLYMP-K 2)     
1 55841U 23031A   24267.66958431 -.00000022  00000+0  00000+0 0  9998
2 55841   0.0353 258.4235 0001005 330.7420  13.9787  1.00272282  5611
GAOFEN-13 02            
1 55912U 23036A   24267.54503699 -.00000246  00000+0  00000+0 0  9999
2 55912   1.8160 308.3863 0004822 300.7216  96.5456  1.00266653  5768
SES-18                  
1 55970U 23038A   24267.08908771 -.00000112  00000+0  00000+0 0  9996
2 55970   0.0327 257.5853 0002518 333.1637  60.6621  1.00272065  5769
SES-19                  
1 55971U 23038B   24267.57149637  .00000076  00000+0  00000+0 0  9997
2 55971   0.0305 279.0835 0001591 276.2540 238.3979  1.00272715  5734
INTELSAT 40E (IS-40E)   
1 56174U 23052A   24267.07956422 -.00000185  00000+0  00000+0 0  9994
2 56174   0.0097 202.4761 0002700 353.4649 104.1271  1.00271114  5486
VIASAT-3                
1 56370U 23060A   24266.89841057 -.00000196  00000+0  00000+0 0  9999
2 56370   0.0246 195.3625 0000084 253.4635 147.8768  1.00270183  5105
ARCTURUS                
1 56371U 23060B   24267.54230456 -.00000129  00000+0  00000+0 0  9994
2 56371   1.1347  87.5826 0000745 181.0886   7.4681  1.00271520  5126
